#dP2024  7 28  0  0  0.00000000      96 __u+U IGS20 EXT  IAC
## 2325      0.00000000   900.00000000 60519 0.0000000000000
+   54   G02G03G04G05G06G07G08G09G10G11G12G13G14G15G16G17G18
+        G19G20G21G22G23G24G25G26G27G28G29G30G31G32R01R02R03
+        R04R05R07R08R09R11R12R13R14R15R16R17R18R19R20R21R22
+        R24R25R26  0  0  0  0  0  0  0  0  0  0  0  0  0  0
+          0  0  0  0  0  0  0  0  0  0  0  0  0  0  0  0  0
++         9  7  8  9  8  9  8  7 10  7  9  8  8  9  7  9  8
++         9  6  9  8  9  7  9  7  7  9  9  8  8  7  9  9  8
++         7  8  7  9  7  9  8  9  8  7  9  8  8 10  9  8  7
++         8  8 10  0  0  0  0  0  0  0  0  0  0  0  0  0  0
++         0  0  0  0  0  0  0  0  0  0  0  0  0  0  0  0  0
%c M  cc GPS ccc cccc cccc cccc cccc ccccc ccccc ccccc ccccc
%c cc cc ccc ccc cccc cccc cccc cccc ccccc ccccc ccccc ccccc
%f  0.0000000  0.000000000  0.00000000000  0.000000000000000
%f  0.0000000  0.000000000  0.00000000000  0.000000000000000
%i    0    0    0    0      0      0      0      0         0
%i    0    0    0    0      0      0      0      0         0
/* IAC                                ULTRA-RAPID PREDICTION
/* S/V CLOCKS ARE ALIGNED TO GNSS TIME                      
/* G:C1WC2W R:C1PC2P E:C1XC5X C:C2IC6I J:C1CC2S             
/* PCV:IGS20_2317 OL/AL:FES2004  NONE     YN ORB:CoN CLK:CoN
*  2024 07 28 12 30  0.00000000
PG02  22661.053716  13320.730311   5308.931260   -390.266371
PG03  13574.768239   5757.523368  21933.061201    477.081469
PG04  23663.681652   2366.891168  11986.439045    412.882594
PG05  -6743.618304 -20740.606591 -15289.115378   -181.283079
PG06   3240.690993 -16040.600797  20956.446204    134.122998
PG07  18874.882237   -224.150416 -18339.705806    -61.422429
PG08  15823.676086   9263.844122 -19471.533070    293.094135
PG09  25506.949043  -7379.106069   1315.763020    291.160117
PG10 -10433.885900  23067.489793  -7237.269978    -78.042279
PG11  -9487.526858 -21757.501625  12009.696294   -712.566454
PG12 -12475.448700  -9549.896980  21142.404006   -525.885996
PG13  -6772.636149 -14000.284456 -21775.181353    667.391962
PG14  13180.986907 -20359.600218 -10522.070874    459.303250
PG15 -16840.585964  -7889.623277 -19536.956087    186.159996
PG16   1980.662133  23016.693664 -13028.168440   -224.214442
PG17  19130.365091 -13652.836964  12951.676024    668.023983
PG18 -18033.746819    914.222378 -19535.037626   -641.049069
PG19  11052.384706 -15083.246584  18530.766171    516.758090
PG20  -2322.674708 -25997.531047  -5267.535990    372.282291
PG21  21329.096254  16764.210449   -100.223419    106.217727
PG22   9800.113217 -24730.617584  -2094.067423    -44.859556
PG23 -14703.260487  13527.799985 -17365.822466    284.254617
PG24 -21988.075792 -15097.616452   2017.706734   -484.776880
PG25 -15831.102760   2961.542115  20742.150772    498.901275
PG26  -4092.017549  26034.278410    202.568632    111.579631
PG27   4210.070129  14747.071767 -21970.266894    -32.084839
PG28  -5262.790772  15097.100403  21198.967973   -349.804969
PG29 -26114.766828   2605.357755   4457.470417   -587.220754
PG30  11290.500006 -10915.388692 -21271.590936   -350.014889
PG31   5294.938164  20587.749837  15456.966289   -226.399616
PG32 -16780.465642  15297.142191  13827.166387   -609.607268
PR01  17629.860000  -3427.856304  18104.257828     92.762500
PR02  21063.539137 -14050.013291   3414.040929    -23.873937
PR03  12427.960343 -17697.910724 -13532.148340    104.587909
PR04  -2441.091671 -11316.904567 -22705.029594    247.279196
PR05 -16175.425602    855.439588 -19688.697642    135.202286
PR07 -11807.125160  17584.118614  14214.126513     87.629797
PR08   2908.762834  11225.812779  22772.307565     -6.192948
PR09  -9131.233132  10111.342440  21606.613691    200.199703
PR11   6203.277015  24176.143639  -5300.278869     16.751864
PR12  11396.521426   9901.975210 -20526.941281     42.979436
PR13   9841.002494  -7035.155753 -22463.670655    -49.888073
PR14   1536.588236 -23232.572347 -10373.677509     26.745421
PR15  -6805.247585 -23569.604051   6995.208976     77.435476
PR16 -11309.194214 -10038.264647  20546.902730     27.765300
PR17   1691.093546 -10738.419336  23083.230484    108.608592
PR18 -14375.787973 -13917.721262  15807.588768    154.216352
PR19 -22634.917409 -11575.330866   2162.958594   -285.493573
PR20 -18578.666000    -69.921023 -17457.191050   -116.833430
PR21  -2346.106656  10418.027084 -23166.002826   -121.277099
PR22  14950.415852  14488.240648 -14719.141048     80.418963
PR24  18345.335631  -1451.705641  17664.729602    -65.528726
PR25  -1962.389356  11047.604069 -22902.471214    -98.516738
PR26   1595.561052  12080.987963  22429.540304      6.683177
*  2024 07 28 12 45  0.00000000
PG02  22851.718906  13718.518972   2504.028202   -390.259664
PG03  13041.499675   8212.566173  21483.659283    477.095776
PG04  22283.838469   2969.191058  14269.164484    412.889466
PG05  -6334.534219 -22292.728441 -13088.572562   -181.284209
PG06   5068.815905 -14446.108421  21750.462883    134.101865
PG07  20341.204449   1272.641864 -16745.177631    -61.416296
PG08  13738.770134  10140.044743 -20554.720043    293.108087
PG09  25291.852543  -7030.298201   4142.922054    291.173866
PG10 -10426.158211  22033.579415  -9927.636300    -78.051561
PG11  -8281.515008 -20849.290562  14294.342345   -712.572107
PG12 -11762.855456 -11876.561273  20372.006888   -525.888735
PG13  -4358.764472 -14458.792722 -22072.599842    667.394085
PG14  13141.824763 -18977.945438 -12897.979184    459.311180
PG15 -14936.395581  -8996.044226 -20590.418745    186.163835
PG16   1382.069362  24217.625459 -10606.631167   -224.205026
PG17  20411.493438 -13815.356197  10531.415453    668.016426
PG18 -19546.404985   -608.066679 -18055.063769   -641.052352
PG19  13105.191157 -15375.354371  16856.810031    516.762863
PG20  -2054.702985 -26440.663397  -2478.877284    372.281931
PG21  21054.845979  16780.570242  -2890.098412    106.215794
PG22   9898.647430 -24239.354186  -4895.430656    -44.863512
PG23 -14468.290542  11449.336731 -18998.116158    284.262538
PG24 -21907.474076 -15409.355078   -758.934294   -484.777951
PG25 -15447.280204    510.399112  21245.983567    498.901530
PG26  -4436.096986  25789.289872   3009.969167    111.573142
PG27   1891.676995  15509.829109 -21725.687060    -32.085477
PG28  -7181.405633  13565.643876  21665.886403   -349.818899
PG29 -25516.483517   2236.426892   7221.502119   -587.218921
PG30  13122.037481  -9273.750659 -21023.925969   -350.008918
PG31   3738.982741  19431.417974  17308.294821   -226.399289
PG32 -18195.231968  15565.099043  11489.122535   -609.605175
PR01  15815.213755  -1937.194496  19911.861709     92.763559
PR02  20481.977442 -13799.432692   6557.554196    -23.874029
PR03  13496.057535 -18770.507425 -10801.501165    104.588550
PR04   -333.078514 -13095.938708 -21863.949803    247.281057
PR05 -14159.719362   -670.490560 -21192.533638    135.202863
PR07 -12941.175624  18700.023331  11540.599621     87.630524
PR08    819.139815  13011.966022  21974.152163     -6.193038
PR09  -9655.148917   7454.431946  22436.519603    200.201574
PR11   6428.518162  24602.701926  -2133.147500     16.750766
PR12  11890.578892  12291.043889 -18891.853753     42.979852
PR13  10346.626898  -4283.032040 -22925.109397    -49.888215
PR14   1708.346202 -21786.896315 -13117.948720     26.745643
PR15  -7044.085384 -24205.489198   3883.339697     77.435154
PR16 -11822.910295 -12415.916877  18887.244365     27.765473
PR17   4362.272951  -9728.953868  23176.272875    108.611743
PR18 -12478.940580 -13030.593896  18024.548926    154.218084
PR19 -22291.813193 -11192.270995   5364.961079   -285.495000
PR20 -20494.766318   -719.149708 -15143.227343   -116.833951
PR21  -5017.546417   9389.582247 -23183.982472   -121.279903
PR22  13179.231103  13632.270515 -17041.546216     80.412746
PR24  20293.470858   -834.995971  15429.004499    -65.530226
PR25  -4574.802476   9945.044729 -23036.713611    -98.518298
PR26   -439.690608  13860.050776  21432.138025      6.684987
EOF
